[{"OBJECT_NAME":"SL-8 R/B","OBJECT_ID":"1991-006B","EPOCH":"2026-04-22T19:26:16.064160","MEAN_MOTION":13.77503319,"ECCENTRICITY":0.0020913,"INCLINATION":82.9403,"RA_OF_ASC_NODE":137.2355,"ARG_OF_PERICENTER":271.6699,"MEAN_ANOMALY":261.6313,"EPHEMERIS_TYPE":0,"CLASSIFICATION_TYPE":"U","NORAD_CAT_ID":21088,"ELEMENT_SET_NO":999,"REV_AT_EPOCH":77014,"BSTAR":0.00012011,"MEAN_MOTION_DOT":1.35e-6,"MEAN_MOTION_DDOT":0},{"OBJECT_NAME":"OKEAN-3","OBJECT_ID":"1991-039A","EPOCH":"2026-04-22T11:54:02.508768","MEAN_MOTION":15.05034304,"ECCENTRICITY":0.0014216,"INCLINATION":82.513,"RA_OF_ASC_NODE":294.3833,"ARG_OF_PERICENTER":174.6335,"MEAN_ANOMALY":185.5047,"EPHEMERIS_TYPE":0,"CLASSIFICATION_TYPE":"U","NORAD_CAT_ID":21397,"ELEMENT_SET_NO":999,"REV_AT_EPOCH":87162,"BSTAR":0.00012313,"MEAN_MOTION_DOT":1.78e-5,"MEAN_MOTION_DDOT":0},{"OBJECT_NAME":"COSMOS 2151","OBJECT_ID":"1991-042A","EPOCH":"2026-04-22T18:31:10.920288","MEAN_MOTION":15.00283649,"ECCENTRICITY":0.0010595,"INCLINATION":82.4984,"RA_OF_ASC_NODE":41.1465,"ARG_OF_PERICENTER":271.5632,"MEAN_ANOMALY":88.4378,"EPHEMERIS_TYPE":0,"CLASSIFICATION_TYPE":"U","NORAD_CAT_ID":21422,"ELEMENT_SET_NO":999,"REV_AT_EPOCH":86980,"BSTAR":8.5379e-5,"MEAN_MOTION_DOT":1.097e-5,"MEAN_MOTION_DDOT":0},{"OBJECT_NAME":"SL-14 R/B","OBJECT_ID":"1991-042B","EPOCH":"2026-04-22T13:57:10.190016","MEAN_MOTION":14.81868091,"ECCENTRICITY":0.0018601,"INCLINATION":82.4951,"RA_OF_ASC_NODE":179.038,"ARG_OF_PERICENTER":96.7307,"MEAN_ANOMALY":263.6025,"EPHEMERIS_TYPE":0,"CLASSIFICATION_TYPE":"U","NORAD_CAT_ID":21423,"ELEMENT_SET_NO":999,"REV_AT_EPOCH":85957,"BSTAR":2.6184e-5,"MEAN_MOTION_DOT":2.31e-6,"MEAN_MOTION_DDOT":0},{"OBJECT_NAME":"ERS-1","OBJECT_ID":"1991-050A","EPOCH":"2026-04-22T18:24:07.564608","MEAN_MOTION":14.39480966,"ECCENTRICITY":0.0033055,"INCLINATION":98.7839,"RA_OF_ASC_NODE":132.1029,"ARG_OF_PERICENTER":72.4028,"MEAN_ANOMALY":288.0765,"EPHEMERIS_TYPE":0,"CLASSIFICATION_TYPE":"U","NORAD_CAT_ID":21574,"ELEMENT_SET_NO":999,"REV_AT_EPOCH":82207,"BSTAR":7.6541e-5,"MEAN_MOTION_DOT":1.94e-6,"MEAN_MOTION_DDOT":0},{"OBJECT_NAME":"ARIANE 40 R/B","OBJECT_ID":"1991-050F","EPOCH":"2026-04-22T17:06:36.535968","MEAN_MOTION":14.42923045,"ECCENTRICITY":0.0001949,"INCLINATION":98.1927,"RA_OF_ASC_NODE":163.2777,"ARG_OF_PERICENTER":317.7791,"MEAN_ANOMALY":42.3249,"EPHEMERIS_TYPE":0,"CLASSIFICATION_TYPE":"U","NORAD_CAT_ID":21610,"ELEMENT_SET_NO":999,"REV_AT_EPOCH":82534,"BSTAR":5.9161e-5,"MEAN_MOTION_DOT":1.56e-6,"MEAN_MOTION_DDOT":0},{"OBJECT_NAME":"INTERCOSMOS 25","OBJECT_ID":"1991-086A","EPOCH":"2026-04-22T17:36:54.554400","MEAN_MOTION":12.12125071,"ECCENTRICITY":0.1485758,"INCLINATION":82.5991,"RA_OF_ASC_NODE":283.3694,"ARG_OF_PERICENTER":22.012,"MEAN_ANOMALY":343.8471,"EPHEMERIS_TYPE":0,"CLASSIFICATION_TYPE":"U","NORAD_CAT_ID":21819,"ELEMENT_SET_NO":999,"REV_AT_EPOCH":50202,"BSTAR":0.00010733,"MEAN_MOTION_DOT":5.69e-6,"MEAN_MOTION_DDOT":0},{"OBJECT_NAME":"SL-8 R/B","OBJECT_ID":"1992-008B","EPOCH":"2026-04-22T15:11:10.944384","MEAN_MOTION":13.7597026,"ECCENTRICITY":0.0034803,"INCLINATION":82.9274,"RA_OF_ASC_NODE":235.0877,"ARG_OF_PERICENTER":14.2008,"MEAN_ANOMALY":356.8266,"EPHEMERIS_TYPE":0,"CLASSIFICATION_TYPE":"U","NORAD_CAT_ID":21876,"ELEMENT_SET_NO":999,"REV_AT_EPOCH":71546,"BSTAR":2.6436e-5,"MEAN_MOTION_DOT":4.1e-7,"MEAN_MOTION_DDOT":0},{"OBJECT_NAME":"SL-8 R/B","OBJECT_ID":"1992-020B","EPOCH":"2026-04-22T19:04:28.380288","MEAN_MOTION":13.75548836,"ECCENTRICITY":0.0029196,"INCLINATION":82.9269,"RA_OF_ASC_NODE":121.0048,"ARG_OF_PERICENTER":171.8629,"MEAN_ANOMALY":1.0986,"EPHEMERIS_TYPE":0,"CLASSIFICATION_TYPE":"U","NORAD_CAT_ID":21938,"ELEMENT_SET_NO":999,"REV_AT_EPOCH":70719,"BSTAR":-5.4828e-5,"MEAN_MOTION_DOT":-3.8e-7,"MEAN_MOTION_DDOT":0},{"OBJECT_NAME":"USA 81","OBJECT_ID":"1992-023A","EPOCH":"2026-04-22T17:43:52.764960","MEAN_MOTION":14.32381411,"ECCENTRICITY":0.0001269,"INCLINATION":85.0035,"RA_OF_ASC_NODE":106.0123,"ARG_OF_PERICENTER":98.6172,"MEAN_ANOMALY":261.5164,"EPHEMERIS_TYPE":0,"CLASSIFICATION_TYPE":"U","NORAD_CAT_ID":21949,"ELEMENT_SET_NO":999,"REV_AT_EPOCH":10109,"BSTAR":3.8953e-5,"MEAN_MOTION_DOT":1.25e-6,"MEAN_MOTION_DDOT":0},{"OBJECT_NAME":"COSMOS 2219","OBJECT_ID":"1992-076A","EPOCH":"2026-04-22T19:16:24.600864","MEAN_MOTION":14.14093326,"ECCENTRICITY":0.0016997,"INCLINATION":71.059,"RA_OF_ASC_NODE":285.8507,"ARG_OF_PERICENTER":137.4153,"MEAN_ANOMALY":222.8291,"EPHEMERIS_TYPE":0,"CLASSIFICATION_TYPE":"U","NORAD_CAT_ID":22219,"ELEMENT_SET_NO":999,"REV_AT_EPOCH":72461,"BSTAR":0.00020165,"MEAN_MOTION_DOT":3.37e-6,"MEAN_MOTION_DDOT":0},{"OBJECT_NAME":"SL-16 R/B","OBJECT_ID":"1992-076B","EPOCH":"2026-04-22T16:50:54.351744","MEAN_MOTION":14.1686629,"ECCENTRICITY":0.0011901,"INCLINATION":70.9981,"RA_OF_ASC_NODE":95.662,"ARG_OF_PERICENTER":17.6477,"MEAN_ANOMALY":155.2956,"EPHEMERIS_TYPE":0,"CLASSIFICATION_TYPE":"U","NORAD_CAT_ID":22220,"ELEMENT_SET_NO":999,"REV_AT_EPOCH":72806,"BSTAR":-9.0387e-5,"MEAN_MOTION_DOT":-2.29e-6,"MEAN_MOTION_DDOT":0},{"OBJECT_NAME":"COSMOS 2221","OBJECT_ID":"1992-080A","EPOCH":"2026-04-22T08:56:37.892256","MEAN_MOTION":14.96377068,"ECCENTRICITY":0.00152548,"INCLINATION":82.5041,"RA_OF_ASC_NODE":237.2267,"ARG_OF_PERICENTER":50.3297,"MEAN_ANOMALY":309.9268,"EPHEMERIS_TYPE":0,"CLASSIFICATION_TYPE":"U","NORAD_CAT_ID":22236,"ELEMENT_SET_NO":999,"REV_AT_EPOCH":78732,"BSTAR":0.00012131579,"MEAN_MOTION_DOT":1.402e-5,"MEAN_MOTION_DDOT":0},{"OBJECT_NAME":"SL-16 R/B","OBJECT_ID":"1992-093B","EPOCH":"2026-04-22T20:06:03.411072","MEAN_MOTION":14.15455432,"ECCENTRICITY":0.0006202,"INCLINATION":71.0204,"RA_OF_ASC_NODE":271.5851,"ARG_OF_PERICENTER":248.5758,"MEAN_ANOMALY":111.4704,"EPHEMERIS_TYPE":0,"CLASSIFICATION_TYPE":"U","NORAD_CAT_ID":22285,"ELEMENT_SET_NO":999,"REV_AT_EPOCH":71940,"BSTAR":0.00016815,"MEAN_MOTION_DOT":2.81e-6,"MEAN_MOTION_DDOT":0},{"OBJECT_NAME":"COSMOS 2228","OBJECT_ID":"1992-094A","EPOCH":"2026-04-22T18:15:12.619008","MEAN_MOTION":14.97398787,"ECCENTRICITY":0.0018835,"INCLINATION":82.5206,"RA_OF_ASC_NODE":195.1196,"ARG_OF_PERICENTER":149.967,"MEAN_ANOMALY":210.2637,"EPHEMERIS_TYPE":0,"CLASSIFICATION_TYPE":"U","NORAD_CAT_ID":22286,"ELEMENT_SET_NO":999,"REV_AT_EPOCH":78265,"BSTAR":0.00011108,"MEAN_MOTION_DOT":1.322e-5,"MEAN_MOTION_DDOT":0},{"OBJECT_NAME":"SL-16 R/B","OBJECT_ID":"1993-016B","EPOCH":"2026-04-22T00:49:20.874432","MEAN_MOTION":14.15310938,"ECCENTRICITY":0.00126357,"INCLINATION":71.004,"RA_OF_ASC_NODE":124.1477,"ARG_OF_PERICENTER":259.6039,"MEAN_ANOMALY":100.366,"EPHEMERIS_TYPE":0,"CLASSIFICATION_TYPE":"U","NORAD_CAT_ID":22566,"ELEMENT_SET_NO":999,"REV_AT_EPOCH":70830,"BSTAR":-0.00012334607,"MEAN_MOTION_DOT":-2.88e-6,"MEAN_MOTION_DDOT":0},{"OBJECT_NAME":"COSMOS 2242","OBJECT_ID":"1993-024A","EPOCH":"2026-04-22T13:28:36.870240","MEAN_MOTION":14.96731636,"ECCENTRICITY":0.0017025,"INCLINATION":82.5203,"RA_OF_ASC_NODE":224.7464,"ARG_OF_PERICENTER":153.696,"MEAN_ANOMALY":206.513,"EPHEMERIS_TYPE":0,"CLASSIFICATION_TYPE":"U","NORAD_CAT_ID":22626,"ELEMENT_SET_NO":999,"REV_AT_EPOCH":78695,"BSTAR":0.00011303,"MEAN_MOTION_DOT":1.321e-5,"MEAN_MOTION_DDOT":0}]
