SL-8 R/B                
1 21088U 91006B   26112.80990815  .00000135  00000+0  12011-3 0  9993
2 21088  82.9403 137.2355 0020913 271.6699 261.6313 13.77503319770148
OKEAN-3                 
1 21397U 91039A   26112.49586237  .00001780  00000+0  12313-3 0  9998
2 21397  82.5130 294.3833 0014216 174.6335 185.5047 15.05034304871627
COSMOS 2151             
1 21422U 91042A   26112.77165417  .00001097  00000+0  85379-4 0  9999
2 21422  82.4984  41.1465 0010595 271.5632  88.4378 15.00283649869802
SL-14 R/B               
1 21423U 91042B   26112.58136794  .00000231  00000+0  26184-4 0  9993
2 21423  82.4951 179.0380 0018601  96.7307 263.6025 14.81868091859573
ERS-1                   
1 21574U 91050A   26112.76675422  .00000194  00000+0  76541-4 0  9995
2 21574  98.7839 132.1029 0033055  72.4028 288.0765 14.39480966822077
ARIANE 40 R/B           
1 21610U 91050F   26112.71292287  .00000156  00000+0  59161-4 0  9992
2 21610  98.1927 163.2777 0001949 317.7791  42.3249 14.42923045825349
INTERCOSMOS 25          
1 21819U 91086A   26112.73396475  .00000569  00000+0  10733-3 0  9997
2 21819  82.5991 283.3694 1485758  22.0120 343.8471 12.12125071502028
SL-8 R/B                
1 21876U 92008B   26112.63276556  .00000041  00000+0  26436-4 0  9994
2 21876  82.9274 235.0877 0034803  14.2008 356.8266 13.75970260715462
SL-8 R/B                
1 21938U 92020B   26112.79477292 -.00000038  00000+0 -54828-4 0  9998
2 21938  82.9269 121.0048 0029196 171.8629   1.0986 13.75548836707196
USA 81                  
1 21949U 92023A   26112.73880515  .00000125  00000+0  38953-4 0  9999
2 21949  85.0035 106.0123 0001269  98.6172 261.5164 14.32381411101096
COSMOS 2219             
1 22219U 92076A   26112.80306251  .00000337  00000+0  20165-3 0  9996
2 22219  71.0590 285.8507 0016997 137.4153 222.8291 14.14093326724610
SL-16 R/B               
1 22220U 92076B   26112.70201796 -.00000229  00000+0 -90387-4 0  9991
2 22220  70.9981  95.6620 0011901  17.6477 155.2956 14.16866290728065
COSMOS 2221             
1 22236U 92080A   26112.37266079  .00001402  00000+0  12132-3 0  9994
2 22236  82.5041 237.2267 0015254  50.3297 309.9268 14.96377068787324
SL-16 R/B               
1 22285U 92093B   26112.83753948  .00000281  00000+0  16815-3 0  9995
2 22285  71.0204 271.5851 0006202 248.5758 111.4704 14.15455432719406
COSMOS 2228             
1 22286U 92094A   26112.76056272  .00001322  00000+0  11108-3 0  9992
2 22286  82.5206 195.1196 0018835 149.9670 210.2637 14.97398787782650
SL-16 R/B               
1 22566U 93016B   26112.03426938 -.00000288  00000+0 -12335-3 0  9993
2 22566  71.0040 124.1477 0012635 259.6039 100.3660 14.15310938708301
COSMOS 2242             
1 22626U 93024A   26112.56153785  .00001321  00000+0  11303-3 0  9995
2 22626  82.5203 224.7464 0017025 153.6960 206.5130 14.96731636786952
